STARLINK-36621          
1 67561U 26016A   26054.43297995  .00444008  00000+0  28159-2 0  9991
2 67561  97.2816 114.1331 0002663 104.2289 255.9272 15.75270591  4555
STARLINK-36398          
1 67562U 26016B   26054.12274249  .00203179  00000+0  13284-2 0  9990
2 67562  97.2838 113.7887 0001425  11.6206 348.5092 15.75234110  4507
STARLINK-36403          
1 67563U 26016C   26054.83335647  .00026765  00000+0  17974-3 0  9994
2 67563  97.2853 114.6528 0001618 107.0358 227.9193 15.75190352  5927
STARLINK-36593          
1 67564U 26016D   26054.58968655  .00290942  00000+0  18826-2 0  9994
2 67564  97.2841 114.3813 0001811 355.1475   4.9772 15.75228816  4584
STARLINK-35725          
1 67565U 26016E   26054.73827055  .00308260  00000+0  19953-2 0  9995
2 67565  97.2839 114.4842 0001117 118.5724 241.5654 15.75172958  4608
STARLINK-36394          
1 67566U 26016F   26054.42237814  .00272956  00000+0  17641-2 0  9994
2 67566  97.2853 114.1454 0001829 112.3194 247.8265 15.75306636  4557
STARLINK-36352          
1 67567U 26016G   26054.83335647  .00021596  00000+0  14536-3 0  9996
2 67567  97.2855 114.6647 0000704 101.7041 267.2611 15.75180102  5823
STARLINK-36435          
1 67568U 26016H   26053.61816991  .00531051  00000+0  26160-2 0  9995
2 67568  97.2845 113.4031 0004047 339.2977  20.8126 15.80747366  4434
STARLINK-36575          
1 67569U 26016J   26054.62968529  .00708938  00000+0  33703-2 0  9994
2 67569  97.2833 114.4802 0001665  70.9909 289.1539 15.81071454  4590
STARLINK-36562          
1 67570U 26016K   26054.83335647 -.00175880  00000+0 -11985-2 0  9992
2 67570  97.2850 114.6694 0001343  81.6901 297.2440 15.75270323  5823
STARLINK-36578          
1 67571U 26016L   26054.10686150  .00236988  00000+0  15406-2 0  9998
2 67571  97.2844 113.8106 0001286 112.4426 247.6975 15.75271868  4508
STARLINK-36350          
1 67572U 26016M   26054.60732859  .00364015  00000+0  23236-2 0  9995
2 67572  97.2840 114.3531 0001296 306.3934  53.7211 15.75341044  4583
